SL-16 R/B               
1 25407U 98045B   26075.98964521  .00000213  00000+0  13173-3 0  9991
2 25407  71.0120 166.2234 0007214 356.7335   3.3740 14.16194057428134
ISS (ZARYA)             
1 25544U 98067A   26076.19332186  .00012290  00000+0  23614-3 0  9996
2 25544  51.6337  35.2624 0006226 201.0018 159.0715 15.48337753557491
CZ-4B R/B               
1 25732U 99025C   26076.14468770  .00000050  00000+0  45057-4 0  9991
2 25732  98.6610 120.2491 0036372 324.8831 101.9396 14.18266864389229
OKEAN-O                 
1 25860U 99039A   26076.15480552  .00000640  00000+0  90782-4 0  9991
2 25860  97.9425 135.9698 0001041  74.0736 286.0591 14.80347813435498
SL-16 R/B               
1 25861U 99039B   26076.12764497  .00000522  00000+0  73012-4 0  9998
2 25861  97.9949 135.2128 0013759 229.8451 130.1558 14.81741981437965
DELTA 2 R/B             
1 25876U 99041E   26076.22888455  .00000833  00000+0  17303-3 0  9994
2 25876  51.7613 271.1652 0502553  10.6705 350.4432 14.11859475364094
HELIOS 1B               
1 25977U 99064A   26076.17950053  .00001563  00000+0  17785-3 0  9994
2 25977  98.1688 338.6427 0002294  64.3759 295.7694 14.87728743686379
TERRA                   
1 25994U 99068A   26076.25025964  .00000410  00000+0  92667-4 0  9993
2 25994  97.9577 129.3956 0003145 135.0358 294.1133 14.61022899396180
SL-16 R/B               
1 26070U 00006B   26076.28956105 -.00000180  00000+0 -67137-4 0  9996
2 26070  71.0003  81.8558 0016347 178.4892 181.6284 14.15824068349637
TITAN 4B R/B            
1 26474U 00047B   26076.24975240  .00003562  00000+0  22536-3 0  9994
2 26474  67.9911  19.2500 0038842  26.4029 333.9088 15.09639236394052
ENVISAT                 
1 27386U 02009A   26076.11162453  .00000098  00000+0  45616-4 0  9993
2 27386  98.3739  29.5327 0001302  82.5907 288.0457 14.39039634260242
IDEFIX & ARIANE 42P R/B 
1 27422U 02021B   26076.11712513  .00000243  00000+0  10877-3 0  9998
2 27422  98.5877  14.6349 0012015 160.2911 199.8738 14.31031330245082
