CCSDS_OMM_VERS = 2.0
CREATION_DATE  = 
ORIGINATOR     = 

OBJECT_NAME    = SL-16 R/B
OBJECT_ID      = 1998-045B
CENTER_NAME    = EARTH
REF_FRAME      = TEME
TIME_SYSTEM    = UTC
MEAN_ELEMENT_THEORY = SGP/SGP4

EPOCH          = 2026-03-16T23:45:05.346144
MEAN_MOTION    = 14.16194057
ECCENTRICITY   = .00072147
INCLINATION    = 71.0120
RA_OF_ASC_NODE = 166.2234
ARG_OF_PERICENTER = 356.7335
MEAN_ANOMALY   = 3.3740

EPHEMERIS_TYPE = 0
CLASSIFICATION_TYPE = U
NORAD_CAT_ID   = 25407
ELEMENT_SET_NO = 999
REV_AT_EPOCH   = 42813
BSTAR          = .1317333E-3
MEAN_MOTION_DOT = .213E-5
MEAN_MOTION_DDOT = 0

CCSDS_OMM_VERS = 2.0
CREATION_DATE  = 
ORIGINATOR     = 

OBJECT_NAME    = ISS (ZARYA)
OBJECT_ID      = 1998-067A
CENTER_NAME    = EARTH
REF_FRAME      = TEME
TIME_SYSTEM    = UTC
MEAN_ELEMENT_THEORY = SGP/SGP4

EPOCH          = 2026-03-17T04:38:23.008704
MEAN_MOTION    = 15.48337753
ECCENTRICITY   = .00062264
INCLINATION    = 51.6337
RA_OF_ASC_NODE = 35.2624
ARG_OF_PERICENTER = 201.0018
MEAN_ANOMALY   = 159.0715

EPHEMERIS_TYPE = 0
CLASSIFICATION_TYPE = U
NORAD_CAT_ID   = 25544
ELEMENT_SET_NO = 999
REV_AT_EPOCH   = 55749
BSTAR          = .23613801E-3
MEAN_MOTION_DOT = .1229E-3
MEAN_MOTION_DDOT = 0

CCSDS_OMM_VERS = 2.0
CREATION_DATE  = 
ORIGINATOR     = 

OBJECT_NAME    = CZ-4B R/B
OBJECT_ID      = 1999-025C
CENTER_NAME    = EARTH
REF_FRAME      = TEME
TIME_SYSTEM    = UTC
MEAN_ELEMENT_THEORY = SGP/SGP4

EPOCH          = 2026-03-17T03:28:21.017280
MEAN_MOTION    = 14.18266864
ECCENTRICITY   = .00363729
INCLINATION    = 98.6610
RA_OF_ASC_NODE = 120.2491
ARG_OF_PERICENTER = 324.8831
MEAN_ANOMALY   = 101.9396

EPHEMERIS_TYPE = 0
CLASSIFICATION_TYPE = U
NORAD_CAT_ID   = 25732
ELEMENT_SET_NO = 999
REV_AT_EPOCH   = 38922
BSTAR          = .45056954E-4
MEAN_MOTION_DOT = .5E-6
MEAN_MOTION_DDOT = 0

CCSDS_OMM_VERS = 2.0
CREATION_DATE  = 
ORIGINATOR     = 

OBJECT_NAME    = OKEAN-O
OBJECT_ID      = 1999-039A
CENTER_NAME    = EARTH
REF_FRAME      = TEME
TIME_SYSTEM    = UTC
MEAN_ELEMENT_THEORY = SGP/SGP4

EPOCH          = 2026-03-17T03:42:55.196928
MEAN_MOTION    = 14.80347813
ECCENTRICITY   = .00010417
INCLINATION    = 97.9425
RA_OF_ASC_NODE = 135.9698
ARG_OF_PERICENTER = 74.0736
MEAN_ANOMALY   = 286.0591

EPHEMERIS_TYPE = 0
CLASSIFICATION_TYPE = U
NORAD_CAT_ID   = 25860
ELEMENT_SET_NO = 999
REV_AT_EPOCH   = 43549
BSTAR          = .90782036E-4
MEAN_MOTION_DOT = .64E-5
MEAN_MOTION_DDOT = 0

CCSDS_OMM_VERS = 2.0
CREATION_DATE  = 
ORIGINATOR     = 

OBJECT_NAME    = SL-16 R/B
OBJECT_ID      = 1999-039B
CENTER_NAME    = EARTH
REF_FRAME      = TEME
TIME_SYSTEM    = UTC
MEAN_ELEMENT_THEORY = SGP/SGP4

EPOCH          = 2026-03-17T03:03:48.525408
MEAN_MOTION    = 14.81741981
ECCENTRICITY   = .00137592
INCLINATION    = 97.9949
RA_OF_ASC_NODE = 135.2128
ARG_OF_PERICENTER = 229.8451
MEAN_ANOMALY   = 130.1558

EPHEMERIS_TYPE = 0
CLASSIFICATION_TYPE = U
NORAD_CAT_ID   = 25861
ELEMENT_SET_NO = 999
REV_AT_EPOCH   = 43796
BSTAR          = .73012379E-4
MEAN_MOTION_DOT = .522E-5
MEAN_MOTION_DDOT = 0

CCSDS_OMM_VERS = 2.0
CREATION_DATE  = 
ORIGINATOR     = 

OBJECT_NAME    = DELTA 2 R/B
OBJECT_ID      = 1999-041E
CENTER_NAME    = EARTH
REF_FRAME      = TEME
TIME_SYSTEM    = UTC
MEAN_ELEMENT_THEORY = SGP/SGP4

EPOCH          = 2026-03-17T05:29:35.625120
MEAN_MOTION    = 14.11859475
ECCENTRICITY   = .05025533
INCLINATION    = 51.7613
RA_OF_ASC_NODE = 271.1652
ARG_OF_PERICENTER = 10.6705
MEAN_ANOMALY   = 350.4432

EPHEMERIS_TYPE = 0
CLASSIFICATION_TYPE = U
NORAD_CAT_ID   = 25876
ELEMENT_SET_NO = 999
REV_AT_EPOCH   = 36409
BSTAR          = .17302671E-3
MEAN_MOTION_DOT = .833E-5
MEAN_MOTION_DDOT = 0

CCSDS_OMM_VERS = 2.0
CREATION_DATE  = 
ORIGINATOR     = 

OBJECT_NAME    = HELIOS 1B
OBJECT_ID      = 1999-064A
CENTER_NAME    = EARTH
REF_FRAME      = TEME
TIME_SYSTEM    = UTC
MEAN_ELEMENT_THEORY = SGP/SGP4

EPOCH          = 2026-03-17T04:18:28.845792
MEAN_MOTION    = 14.87728743
ECCENTRICITY   = .0002294
INCLINATION    = 98.1688
RA_OF_ASC_NODE = 338.6427
ARG_OF_PERICENTER = 64.3759
MEAN_ANOMALY   = 295.7694

EPHEMERIS_TYPE = 0
CLASSIFICATION_TYPE = U
NORAD_CAT_ID   = 25977
ELEMENT_SET_NO = 999
REV_AT_EPOCH   = 68637
BSTAR          = .17784566E-3
MEAN_MOTION_DOT = .1563E-4
MEAN_MOTION_DDOT = 0

CCSDS_OMM_VERS = 2.0
CREATION_DATE  = 
ORIGINATOR     = 

OBJECT_NAME    = TERRA
OBJECT_ID      = 1999-068A
CENTER_NAME    = EARTH
REF_FRAME      = TEME
TIME_SYSTEM    = UTC
MEAN_ELEMENT_THEORY = SGP/SGP4

EPOCH          = 2026-03-17T06:00:22.432896
MEAN_MOTION    = 14.61022899
ECCENTRICITY   = .00031456
INCLINATION    = 97.9577
RA_OF_ASC_NODE = 129.3956
ARG_OF_PERICENTER = 135.0358
MEAN_ANOMALY   = 294.1133

EPHEMERIS_TYPE = 0
CLASSIFICATION_TYPE = U
NORAD_CAT_ID   = 25994
ELEMENT_SET_NO = 999
REV_AT_EPOCH   = 39618
BSTAR          = .92666896E-4
MEAN_MOTION_DOT = .41E-5
MEAN_MOTION_DDOT = 0

CCSDS_OMM_VERS = 2.0
CREATION_DATE  = 
ORIGINATOR     = 

OBJECT_NAME    = SL-16 R/B
OBJECT_ID      = 2000-006B
CENTER_NAME    = EARTH
REF_FRAME      = TEME
TIME_SYSTEM    = UTC
MEAN_ELEMENT_THEORY = SGP/SGP4

EPOCH          = 2026-03-17T06:56:58.074720
MEAN_MOTION    = 14.15824068
ECCENTRICITY   = .00163474
INCLINATION    = 71.0003
RA_OF_ASC_NODE = 81.8558
ARG_OF_PERICENTER = 178.4892
MEAN_ANOMALY   = 181.6284

EPHEMERIS_TYPE = 0
CLASSIFICATION_TYPE = U
NORAD_CAT_ID   = 26070
ELEMENT_SET_NO = 999
REV_AT_EPOCH   = 34963
BSTAR          = -.67137477E-4
MEAN_MOTION_DOT = -.18E-5
MEAN_MOTION_DDOT = 0

CCSDS_OMM_VERS = 2.0
CREATION_DATE  = 
ORIGINATOR     = 

OBJECT_NAME    = TITAN 4B R/B
OBJECT_ID      = 2000-047B
CENTER_NAME    = EARTH
REF_FRAME      = TEME
TIME_SYSTEM    = UTC
MEAN_ELEMENT_THEORY = SGP/SGP4

EPOCH          = 2026-03-17T05:59:38.607360
MEAN_MOTION    = 15.09639236
ECCENTRICITY   = .00388428
INCLINATION    = 67.9911
RA_OF_ASC_NODE = 19.2500
ARG_OF_PERICENTER = 26.4029
MEAN_ANOMALY   = 333.9088

EPHEMERIS_TYPE = 0
CLASSIFICATION_TYPE = U
NORAD_CAT_ID   = 26474
ELEMENT_SET_NO = 999
REV_AT_EPOCH   = 39405
BSTAR          = .22536454E-3
MEAN_MOTION_DOT = .3562E-4
MEAN_MOTION_DDOT = 0

CCSDS_OMM_VERS = 2.0
CREATION_DATE  = 
ORIGINATOR     = 

OBJECT_NAME    = ENVISAT
OBJECT_ID      = 2002-009A
CENTER_NAME    = EARTH
REF_FRAME      = TEME
TIME_SYSTEM    = UTC
MEAN_ELEMENT_THEORY = SGP/SGP4

EPOCH          = 2026-03-17T02:40:44.359392
MEAN_MOTION    = 14.39039634
ECCENTRICITY   = .00013024
INCLINATION    = 98.3739
RA_OF_ASC_NODE = 29.5327
ARG_OF_PERICENTER = 82.5907
MEAN_ANOMALY   = 288.0457

EPHEMERIS_TYPE = 0
CLASSIFICATION_TYPE = U
NORAD_CAT_ID   = 27386
ELEMENT_SET_NO = 999
REV_AT_EPOCH   = 26024
BSTAR          = .45616267E-4
MEAN_MOTION_DOT = .98E-6
MEAN_MOTION_DDOT = 0

CCSDS_OMM_VERS = 2.0
CREATION_DATE  = 
ORIGINATOR     = 

OBJECT_NAME    = IDEFIX & ARIANE 42P R/B
OBJECT_ID      = 2002-021B
CENTER_NAME    = EARTH
REF_FRAME      = TEME
TIME_SYSTEM    = UTC
MEAN_ELEMENT_THEORY = SGP/SGP4

EPOCH          = 2026-03-17T02:48:39.611232
MEAN_MOTION    = 14.31031330
ECCENTRICITY   = .0012015
INCLINATION    = 98.5877
RA_OF_ASC_NODE = 14.6349
ARG_OF_PERICENTER = 160.2911
MEAN_ANOMALY   = 199.8738

EPHEMERIS_TYPE = 0
CLASSIFICATION_TYPE = U
NORAD_CAT_ID   = 27422
ELEMENT_SET_NO = 999
REV_AT_EPOCH   = 24508
BSTAR          = .10877416E-3
MEAN_MOTION_DOT = .243E-5
MEAN_MOTION_DDOT = 0

